[{"OBJECT_NAME":"STARLINK-35994","OBJECT_ID":"2025-278AD","EPOCH":"2026-03-09T04:37:34.138272","MEAN_MOTION":15.27583304,"ECCENTRICITY":0.00013033,"INCLINATION":43.0009,"RA_OF_ASC_NODE":117.1212,"ARG_OF_PERICENTER":187.8915,"MEAN_ANOMALY":172.1916,"EPHEMERIS_TYPE":0,"CLASSIFICATION_TYPE":"U","NORAD_CAT_ID":66818,"ELEMENT_SET_NO":999,"REV_AT_EPOCH":1513,"BSTAR":0.0012778175,"MEAN_MOTION_DOT":0.00035072,"MEAN_MOTION_DDOT":0},{"OBJECT_NAME":"COSMOS 2535 DEB","OBJECT_ID":"2019-039M","EPOCH":"2026-03-08T03:25:35.903424","MEAN_MOTION":15.28322551,"ECCENTRICITY":0.0014917,"INCLINATION":97.5619,"RA_OF_ASC_NODE":139.2722,"ARG_OF_PERICENTER":329.0964,"MEAN_ANOMALY":30.9396,"EPHEMERIS_TYPE":0,"CLASSIFICATION_TYPE":"U","NORAD_CAT_ID":44641,"ELEMENT_SET_NO":999,"REV_AT_EPOCH":35167,"BSTAR":0.0011539757,"MEAN_MOTION_DOT":0.0003196,"MEAN_MOTION_DDOT":0}]
